ALOS (DAICHI)           
1 28931U 06002A   24259.44820937  .00005208  00000+0  94634-3 0  9993
2 28931  98.0440 210.6536 0001539 117.5043 242.6317 14.66574457994570
